{
  "type": "FeatureCollection",
  "features": [
    {
      "type": "Feature",
      "properties": {
        "norad_id": 33939,
        "name": "COSMOS 2251 DEB",
        "group": "cosmos-2251-debris",
        "lat": 8.237431076349457,
        "lon": -98.63553120938192,
        "alt_km": 569.9529602483835,
        "timestamp": "2025-12-11T05:00:26.701510+00:00",
        "meta_object_name": "COSMOS 2251 DEB",
        "meta_object_id": "1993-036EU",
        "meta_epoch": "2025-12-10T15:26:16.872576",
        "meta_mean_motion": 14.99623716,
        "meta_eccentricity": 0.0003238,
        "meta_inclination": 74.0066,
        "meta_ra_of_asc_node": 84.8942,
        "meta_arg_of_pericenter": 68.0914,
        "meta_mean_anomaly": 292.0616,
        "meta_ephemeris_type": 0,
        "meta_classification_type": "U",
        "meta_norad_cat_id": 33939,
        "meta_element_set_no": 999,
        "meta_rev_at_epoch": 88721,
        "meta_bstar": 0.0051413,
        "meta_mean_motion_dot": 0.00063885,
        "meta_mean_motion_ddot": 0,
        "tle_line1": "1 33939U 93036EU  25344.64325084  .00063885  00000+0  51413-2 0  9993",
        "tle_line2": "2 33939  74.0066  84.8942 0003238  68.0914 292.0616 14.99623716887211"
      },
      "geometry": {
        "type": "Point",
        "coordinates": [
          -98.63553120938192,
          8.237431076349457
        ]
      }
    },
    {
      "type": "Feature",
      "properties": {
        "norad_id": 33940,
        "name": "COSMOS 2251 DEB",
        "group": "cosmos-2251-debris",
        "lat": 11.792703615440296,
        "lon": -37.012599115013714,
        "alt_km": 693.9008909373106,
        "timestamp": "2025-12-11T05:00:26.701519+00:00",
        "meta_object_name": "COSMOS 2251 DEB",
        "meta_object_id": "1993-036EV",
        "meta_epoch": "2025-12-10T16:47:21.296256",
        "meta_mean_motion": 14.58759095,
        "meta_eccentricity": 0.00114283,
        "meta_inclination": 74.04,
        "meta_ra_of_asc_node": 147.3816,
        "meta_arg_of_pericenter": 227.1765,
        "meta_mean_anomaly": 148.1364,
        "meta_ephemeris_type": 0,
        "meta_classification_type": "U",
        "meta_norad_cat_id": 33940,
        "meta_element_set_no": 999,
        "meta_rev_at_epoch": 88564,
        "meta_bstar": 0.0017510737,
        "meta_mean_motion_dot": 8.167e-05,
        "meta_mean_motion_ddot": 0,
        "tle_line1": "1 33940U 93036EV  25344.69955204  .00008167  00000+0  17511-2 0  9996",
        "tle_line2": "2 33940  74.0400 147.3816 0011428 227.1765 148.1364 14.58759095885643"
      },
      "geometry": {
        "type": "Point",
        "coordinates": [
          -37.012599115013714,
          11.792703615440296
        ]
      }
    },
    {
      "type": "Feature",
      "properties": {
        "norad_id": 33942,
        "name": "COSMOS 2251 DEB",
        "group": "cosmos-2251-debris",
        "lat": 56.554735670333145,
        "lon": 71.96754819047638,
        "alt_km": 766.263333882328,
        "timestamp": "2025-12-11T05:00:26.701529+00:00",
        "meta_object_name": "COSMOS 2251 DEB",
        "meta_object_id": "1993-036EX",
        "meta_epoch": "2025-12-10T20:14:43.150272",
        "meta_mean_motion": 14.37984407,
        "meta_eccentricity": 0.00202212,
        "meta_inclination": 74.0366,
        "meta_ra_of_asc_node": 278.3206,
        "meta_arg_of_pericenter": 1.9865,
        "meta_mean_anomaly": 28.3362,
        "meta_ephemeris_type": 0,
        "meta_classification_type": "U",
        "meta_norad_cat_id": 33942,
        "meta_element_set_no": 999,
        "meta_rev_at_epoch": 88107,
        "meta_bstar": 0.00039760584,
        "meta_mean_motion_dot": 1.179e-05,
        "meta_mean_motion_ddot": 0,
        "tle_line1": "1 33942U 93036EX  25344.84355498  .00001179  00000+0  39761-3 0  9992",
        "tle_line2": "2 33942  74.0366 278.3206 0020221   1.9865  28.3362 14.37984407881078"
      },
      "geometry": {
        "type": "Point",
        "coordinates": [
          71.96754819047638,
          56.554735670333145
        ]
      }
    },
    {
      "type": "Feature",
      "properties": {
        "norad_id": 33944,
        "name": "COSMOS 2251 DEB",
        "group": "cosmos-2251-debris",
        "lat": -3.471571221468695,
        "lon": -49.25151877852574,
        "alt_km": 724.0781917872964,
        "timestamp": "2025-12-11T05:00:26.701539+00:00",
        "meta_object_name": "COSMOS 2251 DEB",
        "meta_object_id": "1993-036EZ",
        "meta_epoch": "2025-12-10T22:28:33.008160",
        "meta_mean_motion": 14.37336707,
        "meta_eccentricity": 0.01121316,
        "meta_inclination": 74.0402,
        "meta_ra_of_asc_node": 312.2437,
        "meta_arg_of_pericenter": 52.3174,
        "meta_mean_anomaly": 337.5929,
        "meta_ephemeris_type": 0,
        "meta_classification_type": "U",
        "meta_norad_cat_id": 33944,
        "meta_element_set_no": 999,
        "meta_rev_at_epoch": 88002,
        "meta_bstar": 0.00051604486,
        "meta_mean_motion_dot": 1.629e-05,
        "meta_mean_motion_ddot": 0,
        "tle_line1": "1 33944U 93036EZ  25344.93649315  .00001629  00000+0  51604-3 0  9998",
        "tle_line2": "2 33944  74.0402 312.2437 0112131  52.3174 337.5929 14.37336707880022"
      },
      "geometry": {
        "type": "Point",
        "coordinates": [
          -49.25151877852574,
          -3.471571221468695
        ]
      }
    },
    {
      "type": "Feature",
      "properties": {
        "norad_id": 33945,
        "name": "COSMOS 2251 DEB",
        "group": "cosmos-2251-debris",
        "lat": 13.657064910017407,
        "lon": 125.08328344408447,
        "alt_km": 787.0251787375855,
        "timestamp": "2025-12-11T05:00:26.701549+00:00",
        "meta_object_name": "COSMOS 2251 DEB",
        "meta_object_id": "1993-036FA",
        "meta_epoch": "2025-12-10T08:09:21.547872",
        "meta_mean_motion": 14.34597949,
        "meta_eccentricity": 0.00218071,
        "meta_inclination": 74.0296,
        "meta_ra_of_asc_node": 310.6646,
        "meta_arg_of_pericenter": 37.7393,
        "meta_mean_anomaly": 322.5284,
        "meta_ephemeris_type": 0,
        "meta_classification_type": "U",
        "meta_norad_cat_id": 33945,
        "meta_element_set_no": 999,
        "meta_rev_at_epoch": 87981,
        "meta_bstar": 0.00023987978,
        "meta_mean_motion_dot": 6.53e-06,
        "meta_mean_motion_ddot": 0,
        "tle_line1": "1 33945U 93036FA  25344.33983273  .00000653  00000+0  23988-3 0  9997",
        "tle_line2": "2 33945  74.0296 310.6646 0021807  37.7393 322.5284 14.34597949879814"
      },
      "geometry": {
        "type": "Point",
        "coordinates": [
          125.08328344408447,
          13.657064910017407
        ]
      }
    },
    {
      "type": "Feature",
      "properties": {
        "norad_id": 33948,
        "name": "COSMOS 2251 DEB",
        "group": "cosmos-2251-debris",
        "lat": 8.252394799061163,
        "lon": -49.67655292488324,
        "alt_km": 758.8756535290677,
        "timestamp": "2025-12-11T05:00:26.701559+00:00",
        "meta_object_name": "COSMOS 2251 DEB",
        "meta_object_id": "1993-036FD",
        "meta_epoch": "2025-12-10T07:13:34.759200",
        "meta_mean_motion": 14.35624748,
        "meta_eccentricity": 0.0022609,
        "meta_inclination": 74.0355,
        "meta_ra_of_asc_node": 309.6084,
        "meta_arg_of_pericenter": 26.1107,
        "meta_mean_anomaly": 334.118,
        "meta_ephemeris_type": 0,
        "meta_classification_type": "U",
        "meta_norad_cat_id": 33948,
        "meta_element_set_no": 999,
        "meta_rev_at_epoch": 87988,
        "meta_bstar": 0.00033876,
        "meta_mean_motion_dot": 9.54e-06,
        "meta_mean_motion_ddot": 0,
        "tle_line1": "1 33948U 93036FD  25344.30109675  .00000954  00000+0  33876-3 0  9994",
        "tle_line2": "2 33948  74.0355 309.6084 0022609  26.1107 334.1180 14.35624748879883"
      },
      "geometry": {
        "type": "Point",
        "coordinates": [
          -49.67655292488324,
          8.252394799061163
        ]
      }
    },
    {
      "type": "Feature",
      "properties": {
        "norad_id": 33971,
        "name": "COSMOS 2251 DEB",
        "group": "cosmos-2251-debris",
        "lat": 51.1978367291963,
        "lon": -82.56696456880317,
        "alt_km": 747.1305398899513,
        "timestamp": "2025-12-11T05:00:26.701569+00:00",
        "meta_object_name": "COSMOS 2251 DEB",
        "meta_object_id": "1993-036FE",
        "meta_epoch": "2025-12-10T18:53:26.270304",
        "meta_mean_motion": 14.39720097,
        "meta_eccentricity": 0.0018458,
        "meta_inclination": 74.0251,
        "meta_ra_of_asc_node": 257.3415,
        "meta_arg_of_pericenter": 358.1537,
        "meta_mean_anomaly": 31.9705,
        "meta_ephemeris_type": 0,
        "meta_classification_type": "U",
        "meta_norad_cat_id": 33971,
        "meta_element_set_no": 999,
        "meta_rev_at_epoch": 88111,
        "meta_bstar": 0.00046849133,
        "meta_mean_motion_dot": 1.444e-05,
        "meta_mean_motion_ddot": 0,
        "tle_line1": "1 33971U 93036FE  25344.78710961  .00001444  00000+0  46849-3 0  9997",
        "tle_line2": "2 33971  74.0251 257.3415 0018458 358.1537  31.9705 14.39720097881115"
      },
      "geometry": {
        "type": "Point",
        "coordinates": [
          -82.56696456880317,
          51.1978367291963
        ]
      }
    }
  ]
}